*******************************************************************************
 Revised: Nov 05, 2015             134340 Pluto                             999
 
 Fit to all available observations (PLU043/DE433) including New Horizons
 encounter tracking.

 ICRF/J2000.0 helio. ecliptic osc. elements (AU, DAYS, DEG, period=Julian yrs):

 EPOCH= 2457217.5 ! 2015-Jul-14 00:00:00.0000 (TDB)
  EC= 2.543193766760227E-01 QR= 2.963711277830007E+01 IN= 1.736672922693450E+01
  OM= 1.102097591127033E+02 W = 1.142276233642205E+02 Tp=  2447886.048708124086
  N = 3.933503338914713E-03 MA= 3.670529481351401E+01 TA= 5.935219029576444E+01
  A = 3.974504882021532E+01 AD= 4.985298486213057E+01 PR= 9.152146801007345E+04

 NOTE:
  The Horizons output log may report using DE431 as the source of target or
  center data, but it is nevertheless using DE433 as an override if Pluto is 
  involved. This is to maintain ephemeris consistency for the New Horizons 
  spacecraft encounter at Pluto.

 PHYSICAL DATA (updated 2013-Nov-19, Mc= Charon mass, radius is IAU 2009):
  Mass Pluto (10^22 kg) = 1.307+-0.018    Density Pluto:
  GM (planet) km^3/s^2  = 872.4             (R = 1195 km)       = 1.83 g/cm^3
  Mass ratio (Mc/Mp)    = 0.117           Radius of Pluto, Rp   = 1195 km
  Surface gravity       = 61.1 cm/s^2     Geometric albedo      = 0.3 
  Sidereal orbit period = 249.58932 yr    Mean orbit velocity   = 4.656 km/s
  Escape velocity (km/s)= 1.21
*******************************************************************************
 
 
*******************************************************************************
Ephemeris / WWW_USER Tue Oct 17 07:05:59 2017 Pasadena, USA      / Horizons    
*******************************************************************************
Target body name: Pluto (999)                     {source: plu055l_merged}
Center body name: Solar System Barycenter (0)     {source: DE431mx}
Center-site name: BODY CENTER
*******************************************************************************
Start time      : A.D. 2017-Oct-17 00:00:00.0000 TDB
Stop  time      : A.D. 2017-Nov-16 00:00:00.0000 TDB
Step-size       : 1440 minutes
*******************************************************************************
Center geodetic : 0.00000000,0.00000000,0.0000000 {E-lon(deg),Lat(deg),Alt(km)}
Center cylindric: 0.00000000,0.00000000,0.0000000 {E-lon(deg),Dxy(km),Dz(km)}
Center radii    : (undefined)                                                  
Output units    : AU-D                                                         
Output type     : GEOMETRIC cartesian states
Output format   : 3 (position, velocity, LT, range, range-rate)
Reference frame : ICRF/J2000.0                                                 
Coordinate systm: Ecliptic and Mean Equinox of Reference Epoch                 
*******************************************************************************
JDTDB
   X     Y     Z
   VX    VY    VZ
   LT    RG    RR
*******************************************************************************
$$SOE
2458066.500000000 = A.D. 2017-Nov-09 00:00:00.0000 TDB 
 X = 1.061707205030150E+01 Y =-3.170479875371804E+01 Z = 3.215316151467720E-01
 VX= 3.051902857484734E-03 VY= 3.423306358123448E-04 VZ=-9.279470693235331E-04
 LT= 1.931148747731397E-01 RG= 3.343680405652719E+01 RR= 6.355387391952351E-04
2458067.500000000 = A.D. 2017-Nov-10 00:00:00.0000 TDB 
 X = 1.062011985307373E+01 Y =-3.170446149948722E+01 Z = 3.206024027876681E-01
 VX= 3.043010253677414E-03 VY= 3.326929035949897E-04 VZ=-9.284452695952637E-04
 LT= 1.931185664009714E-01 RG= 3.343744324207207E+01 RR= 6.421430704277383E-04
2458068.500000000 = A.D. 2017-Nov-11 00:00:00.0000 TDB 
 X = 1.062315823156790E+01 Y =-3.170413096299545E+01 Z = 3.196782986232485E-01
 VX= 3.034584492756302E-03 VY= 3.300371232279194E-04 VZ=-9.185676069966843E-04
 LT= 1.931222795077595E-01 RG= 3.343808614658300E+01 RR= 6.423718400690838E-04
2458069.500000000 = A.D. 2017-Nov-12 00:00:00.0000 TDB 
 X = 1.062619174580704E+01 Y =-3.170379812598749E+01 Z = 3.187658076629905E-01
 VX= 3.034066166285594E-03 VY= 3.369591735280535E-04 VZ=-9.071225951766884E-04
 LT= 1.931259734184820E-01 RG= 3.343872572739817E+01 RR= 6.360446790009138E-04
2458070.500000000 = A.D. 2017-Nov-13 00:00:00.0000 TDB 
 X = 1.062922922296233E+01 Y =-3.170345579411492E+01 Z = 3.178610743118663E-01
 VX= 3.041847308955689E-03 VY= 3.475110580315092E-04 VZ=-9.043260408235387E-04
 LT= 1.931296247209982E-01 RG= 3.343935793083111E+01 RR= 6.288320738246321E-04
2458071.500000000 = A.D. 2017-Nov-14 00:00:00.0000 TDB 
 X = 1.063227588139054E+01 Y =-3.170310502079259E+01 Z = 3.169533148537791E-01
 VX= 3.050908560112205E-03 VY= 3.524984154433895E-04 VZ=-9.126786202078442E-04
 LT= 1.931332481823211E-01 RG= 3.343998531371088E+01 RR= 6.271991600688198E-04
2458072.500000000 = A.D. 2017-Nov-15 00:00:00.0000 TDB 
 X = 1.063532866941749E+01 Y =-3.170275416944042E+01 Z = 3.160344447305907E-01
 VX= 3.053088176270659E-03 VY= 3.476965780196690E-04 VZ=-9.247252314135111E-04
 LT= 1.931368835676409E-01 RG= 3.344061476116672E+01 RR= 6.326262898840754E-04
2458073.500000000 = A.D. 2017-Nov-16 00:00:00.0000 TDB 
 X = 1.063837899322313E+01 Y =-3.170241144517102E+01 Z = 3.151062929227432E-01
 VX= 3.046371121707361E-03 VY= 3.376179096474247E-04 VZ=-9.297220179135004E-04
 LT= 1.931405601259538E-01 RG= 3.344125133750531E+01 RR= 6.402926490165213E-04
